start=new Date('2022-01-14T00:00:00.000Z').valueOf();
sats=[{"FILE":"3272312","ECCENTRICITY":"0.00014070","GP_ID":"193810305","APOAPSIS":"548.208","REF_FRAME":"TEME","BSTAR":"0.00001875600000","INCLINATION":"53.0551","EPHEMERIS_TYPE":"0","PERIOD":"95.593","MEAN_MOTION_DDOT":"0.0000000000000","OBJECT_NAME":"STARLINK-1358","PERIAPSIS":"546.259","TLE_LINE2":"2 45566  53.0551  52.6731 0001407  76.9787 283.1359 15.06393429 96858","MEAN_MOTION_DOT":"-0.00000002","ELEMENT_SET_NO":"999","DECAY_DATE":null,"SITE":"AFETR","CLASSIFICATION_TYPE":"U","MEAN_ANOMALY":"283.1359","OBJECT_ID":"2020-025AM","RA_OF_ASC_NODE":"52.6731","TLE_LINE1":"1 45566U 20025AM  22013.58780922 -.00000002  00000-0  18756-4 0  9998","CENTER_NAME":"EARTH","NORAD_CAT_ID":"45566","EPOCH":"2022-01-13T14:06:26.716608","MEAN_ELEMENT_THEORY":"SGP4","RCS_SIZE":"LARGE","TIME_SYSTEM":"UTC","OBJECT_TYPE":"PAYLOAD","REV_AT_EPOCH":"9685","COUNTRY_CODE":"US","MEAN_MOTION":"15.06393429","ARG_OF_PERICENTER":"76.9787","SEMIMAJOR_AXIS":"6925.369","LAUNCH_DATE":"2020-04-22"},{"ECCENTRICITY":"0.00014360","FILE":"3272312","APOAPSIS":"548.243","GP_ID":"193809053","REF_FRAME":"TEME","INCLINATION":"53.0548","BSTAR":"0.00000982420000","EPHEMERIS_TYPE":"0","MEAN_MOTION_DDOT":"0.0000000000000","PERIOD":"95.593","TLE_LINE2":"2 45567  53.0548  52.6116 0001436  81.3136 278.8016 15.06388658 96862","PERIAPSIS":"546.254","OBJECT_NAME":"STARLINK-1361","DECAY_DATE":null,"CLASSIFICATION_TYPE":"U","SITE":"AFETR","MEAN_MOTION_DOT":"-0.00000135","ELEMENT_SET_NO":"999","MEAN_ANOMALY":"278.8016","OBJECT_ID":"2020-025AN","TLE_LINE1":"1 45567U 20025AN  22013.59886936 -.00000135  00000-0  98242-5 0  9998","CENTER_NAME":"EARTH","NORAD_CAT_ID":"45567","EPOCH":"2022-01-13T14:22:22.312704","MEAN_ELEMENT_THEORY":"SGP4","RA_OF_ASC_NODE":"52.6116","TIME_SYSTEM":"UTC","OBJECT_TYPE":"PAYLOAD","RCS_SIZE":"LARGE","REV_AT_EPOCH":"9686","COUNTRY_CODE":"US","MEAN_MOTION":"15.06388658","SEMIMAJOR_AXIS":"6925.383","ARG_OF_PERICENTER":"81.3136","LAUNCH_DATE":"2020-04-22"},{"APOAPSIS":"548.266","GP_ID":"193809303","ECCENTRICITY":"0.00015100","FILE":"3272312","INCLINATION":"53.0553","BSTAR":"0.00003829100000","REF_FRAME":"TEME","MEAN_MOTION_DDOT":"0.0000000000000","PERIOD":"95.592","EPHEMERIS_TYPE":"0","CLASSIFICATION_TYPE":"U","SITE":"AFETR","DECAY_DATE":null,"ELEMENT_SET_NO":"999","MEAN_MOTION_DOT":"0.00000289","TLE_LINE2":"2 45568  53.0553  51.7633 0001510  79.7060 280.4099 15.06397848 96886","PERIAPSIS":"546.174","OBJECT_NAME":"STARLINK-1363","OBJECT_ID":"2020-025AP","MEAN_ANOMALY":"280.4099","TIME_SYSTEM":"UTC","OBJECT_TYPE":"PAYLOAD","RCS_SIZE":"LARGE","EPOCH":"2022-01-13T18:57:00.503424","MEAN_ELEMENT_THEORY":"SGP4","NORAD_CAT_ID":"45568","TLE_LINE1":"1 45568U 20025AP  22013.78958916  .00000289  00000-0  38291-4 0  9994","CENTER_NAME":"EARTH","RA_OF_ASC_NODE":"51.7633","REV_AT_EPOCH":"9688","LAUNCH_DATE":"2020-04-22","SEMIMAJOR_AXIS":"6925.355","ARG_OF_PERICENTER":"79.7060","MEAN_MOTION":"15.06397848","COUNTRY_CODE":"US"},{"LAUNCH_DATE":"2020-04-22","SEMIMAJOR_AXIS":"6925.350","ARG_OF_PERICENTER":"72.8117","COUNTRY_CODE":"US","MEAN_MOTION":"15.06399594","REV_AT_EPOCH":"9684","RCS_SIZE":"LARGE","OBJECT_TYPE":"PAYLOAD","TIME_SYSTEM":"UTC","RA_OF_ASC_NODE":"52.8978","EPOCH":"2022-01-13T12:52:08.043744","MEAN_ELEMENT_THEORY":"SGP4","CENTER_NAME":"EARTH","TLE_LINE1":"1 45569U 20025AQ  22013.53620421  .00000773  00000-0  70811-4 0  9997","NORAD_CAT_ID":"45569","OBJECT_ID":"2020-025AQ","MEAN_ANOMALY":"287.3020","ELEMENT_SET_NO":"999","MEAN_MOTION_DOT":"0.00000773","CLASSIFICATION_TYPE":"U","SITE":"AFETR","DECAY_DATE":null,"OBJECT_NAME":"STARLINK-1366","TLE_LINE2":"2 45569  53.0552  52.8978 0001350  72.8117 287.3020 15.06399594 96845","PERIAPSIS":"546.280","MEAN_MOTION_DDOT":"0.0000000000000","PERIOD":"95.592","EPHEMERIS_TYPE":"0","BSTAR":"0.00007081100000","INCLINATION":"53.0552","REF_FRAME":"TEME","APOAPSIS":"548.150","GP_ID":"193778753","ECCENTRICITY":"0.00013500","FILE":"3271980"},{"INCLINATION":"53.0552","BSTAR":"-0.00001790000000","REF_FRAME":"TEME","APOAPSIS":"548.157","GP_ID":"193809805","ECCENTRICITY":"0.00013470","FILE":"3272312","CLASSIFICATION_TYPE":"U","SITE":"AFETR","DECAY_DATE":null,"ELEMENT_SET_NO":"999","MEAN_MOTION_DOT":"-0.00000548","TLE_LINE2":"2 45570  53.0552  51.7370 0001347  75.1382 284.9756 15.06396478 96888","PERIAPSIS":"546.292","OBJECT_NAME":"STARLINK-1376","PERIOD":"95.592","MEAN_MOTION_DDOT":"0.0000000000000","EPHEMERIS_TYPE":"0","TIME_SYSTEM":"UTC","OBJECT_TYPE":"PAYLOAD","RCS_SIZE":"LARGE","MEAN_ELEMENT_THEORY":"SGP4","EPOCH":"2022-01-13T19:03:40.673664","TLE_LINE1":"1 45570U 20025AR  22013.79422076 -.00000548  00000-0 -17900-4 0  9995","CENTER_NAME":"EARTH","NORAD_CAT_ID":"45570","RA_OF_ASC_NODE":"51.7370","OBJECT_ID":"2020-025AR","MEAN_ANOMALY":"284.9756","LAUNCH_DATE":"2020-04-22","SEMIMAJOR_AXIS":"6925.359","ARG_OF_PERICENTER":"75.1382","COUNTRY_CODE":"US","MEAN_MOTION":"15.06396478","REV_AT_EPOCH":"9688"},{"DECAY_DATE":null,"SITE":"AFETR","CLASSIFICATION_TYPE":"U","MEAN_MOTION_DOT":"0.00000335","ELEMENT_SET_NO":"999","PERIAPSIS":"546.118","TLE_LINE2":"2 45571  53.0558  42.8711 0001613  71.4816 288.6348 15.06392849 97003","OBJECT_NAME":"STARLINK-1261","MEAN_MOTION_DDOT":"0.0000000000000","PERIOD":"95.593","EPHEMERIS_TYPE":"0","INCLINATION":"53.0558","BSTAR":"0.00004139800000","REF_FRAME":"TEME","GP_ID":"193777752","APOAPSIS":"548.353","FILE":"3271980","ECCENTRICITY":"0.00016130","LAUNCH_DATE":"2020-04-22","COUNTRY_CODE":"US","MEAN_MOTION":"15.06392849","ARG_OF_PERICENTER":"71.4816","SEMIMAJOR_AXIS":"6925.370","REV_AT_EPOCH":"9700","OBJECT_TYPE":"PAYLOAD","TIME_SYSTEM":"UTC","RCS_SIZE":"LARGE","NORAD_CAT_ID":"45571","TLE_LINE1":"1 45571U 20025AS  22013.54449899  .00000335  00000-0  41398-4 0  9991","CENTER_NAME":"EARTH","EPOCH":"2022-01-13T13:04:04.712736","MEAN_ELEMENT_THEORY":"SGP4","RA_OF_ASC_NODE":"42.8711","OBJECT_ID":"2020-025AS","MEAN_ANOMALY":"288.6348"},{"REV_AT_EPOCH":"9696","MEAN_MOTION":"15.06392143","COUNTRY_CODE":"US","ARG_OF_PERICENTER":"82.2600","SEMIMAJOR_AXIS":"6925.373","LAUNCH_DATE":"2020-04-22","MEAN_ANOMALY":"277.8549","OBJECT_ID":"2020-025AT","RA_OF_ASC_NODE":"43.7990","CENTER_NAME":"EARTH","TLE_LINE1":"1 45572U 20025AT  22013.33810447  .00000142  00000-0  28414-4 0  9990","NORAD_CAT_ID":"45572","MEAN_ELEMENT_THEORY":"SGP4","EPOCH":"2022-01-13T08:06:52.226208","RCS_SIZE":"LARGE","OBJECT_TYPE":"PAYLOAD","TIME_SYSTEM":"UTC","EPHEMERIS_TYPE":"0","PERIOD":"95.593","MEAN_MOTION_DDOT":"0.0000000000000","OBJECT_NAME":"STARLINK-1320","TLE_LINE2":"2 45572  53.0558  43.7990 0001406  82.2600 277.8549 15.06392143 96968","PERIAPSIS":"546.264","MEAN_MOTION_DOT":"0.00000142","ELEMENT_SET_NO":"999","DECAY_DATE":null,"CLASSIFICATION_TYPE":"U","SITE":"AFETR","FILE":"3271980","ECCENTRICITY":"0.00014060","GP_ID":"193778002","APOAPSIS":"548.211","REF_FRAME":"TEME","BSTAR":"0.00002841400000","INCLINATION":"53.0558"},{"OBJECT_NAME":"STARLINK-1321","TLE_LINE2":"2 45573  53.0556  41.2072 0001362  70.1113 290.0023 15.06387414 96742","PERIAPSIS":"546.309","MEAN_MOTION_DOT":"-0.00000119","ELEMENT_SET_NO":"999","DECAY_DATE":null,"SITE":"AFETR","CLASSIFICATION_TYPE":"U","EPHEMERIS_TYPE":"0","MEAN_MOTION_DDOT":"0.0000000000000","PERIOD":"95.593","REF_FRAME":"TEME","BSTAR":"0.00001093700000","INCLINATION":"53.0556","ECCENTRICITY":"0.00013620","FILE":"3272312","GP_ID":"193810055","APOAPSIS":"548.195","COUNTRY_CODE":"US","MEAN_MOTION":"15.06387414","ARG_OF_PERICENTER":"70.1113","SEMIMAJOR_AXIS":"6925.387","LAUNCH_DATE":"2020-04-22","REV_AT_EPOCH":"9674","RA_OF_ASC_NODE":"41.2072","CENTER_NAME":"EARTH","TLE_LINE1":"1 45573U 20025AU  22013.91309813 -.00000119  00000-0  10937-4 0  9991","NORAD_CAT_ID":"45573","MEAN_ELEMENT_THEORY":"SGP4","EPOCH":"2022-01-13T21:54:51.678432","RCS_SIZE":"LARGE","TIME_SYSTEM":"UTC","OBJECT_TYPE":"PAYLOAD","MEAN_ANOMALY":"290.0023","OBJECT_ID":"2020-025AU"},{"RA_OF_ASC_NODE":"43.7779","NORAD_CAT_ID":"45574","TLE_LINE1":"1 45574U 20025AV  22013.34177360 -.00000132  00000-0  10009-4 0  9994","CENTER_NAME":"EARTH","MEAN_ELEMENT_THEORY":"SGP4","EPOCH":"2022-01-13T08:12:09.239040","RCS_SIZE":"LARGE","TIME_SYSTEM":"UTC","OBJECT_TYPE":"PAYLOAD","MEAN_ANOMALY":"288.4452","OBJECT_ID":"2020-025AV","COUNTRY_CODE":"US","MEAN_MOTION":"15.06387216","SEMIMAJOR_AXIS":"6925.388","ARG_OF_PERICENTER":"71.6697","LAUNCH_DATE":"2020-04-22","REV_AT_EPOCH":"9697","REF_FRAME":"TEME","BSTAR":"0.00001000900000","INCLINATION":"53.0561","FILE":"3271980","ECCENTRICITY":"0.00014670","GP_ID":"193778504","APOAPSIS":"548.269","OBJECT_NAME":"STARLINK-1324","TLE_LINE2":"2 45574  53.0561  43.7779 0001467  71.6697 288.4452 15.06387216 96971","PERIAPSIS":"546.237","MEAN_MOTION_DOT":"-0.00000132","ELEMENT_SET_NO":"999","DECAY_DATE":null,"SITE":"AFETR","CLASSIFICATION_TYPE":"U","EPHEMERIS_TYPE":"0","PERIOD":"95.593","MEAN_MOTION_DDOT":"0.0000000000000"},{"BSTAR":"0.00034974000000","INCLINATION":"53.0015","REF_FRAME":"TEME","APOAPSIS":"539.368","GP_ID":"193809054","ECCENTRICITY":"0.00014640","FILE":"3272312","ELEMENT_SET_NO":"999","MEAN_MOTION_DOT":"0.00005351","SITE":"AFETR","CLASSIFICATION_TYPE":"U","DECAY_DATE":null,"OBJECT_NAME":"STARLINK-1326","PERIAPSIS":"537.343","TLE_LINE2":"2 45575  53.0015  36.6617 0001464  81.7491 278.3664 15.09294838 97085","MEAN_MOTION_DDOT":"0.0000000000000","PERIOD":"95.409","EPHEMERIS_TYPE":"0","RCS_SIZE":"LARGE","TIME_SYSTEM":"UTC","OBJECT_TYPE":"PAYLOAD","RA_OF_ASC_NODE":"36.6617","EPOCH":"2022-01-13T18:33:45.832896","MEAN_ELEMENT_THEORY":"SGP4","TLE_LINE1":"1 45575U 20025AW  22013.77344714  .00005351  00000-0  34974-3 0  9994","CENTER_NAME":"EARTH","NORAD_CAT_ID":"45575","OBJECT_ID":"2020-025AW","MEAN_ANOMALY":"278.3664","LAUNCH_DATE":"2020-04-22","SEMIMAJOR_AXIS":"6916.490","ARG_OF_PERICENTER":"81.7491","COUNTRY_CODE":"US","MEAN_MOTION":"15.09294838","REV_AT_EPOCH":"9708"}];
